ONEWEB-0616             
1 55157U 23004T   23298.23405465  .00000106  00000+0  23974-3 0  9999
2 55157  88.1151 197.5391 0002573  50.7165 309.4195 13.17647851 40496
ONEWEB-0617             
1 55158U 23004U   23298.30226793  .00000491  00000+0  13501-2 0  9994
2 55158  87.9004 212.9869 0001835  93.4245 266.7093 13.11418139 39260
ONEWEB-0618             
1 55159U 23004V   23298.95126874  .00000233  00000+0  88689-4 0  9990
2 55159  86.9143 176.6650 0012681 335.1825  24.8755 14.26671025 41802
ONEWEB-0619             
1 55160U 23004W   23298.95334858  .00000043  00000+0  76685-4 0  9997
2 55160  87.9252 197.6732 0002526  75.6324 284.5088 13.17647289 40488
ONEWEB-0620             
1 55161U 23004X   23298.29739229  .00000424  00000+0  11598-2 0  9999
2 55161  87.9011 212.9904 0001630  91.6334 268.4980 13.11422087 39232
ONEWEB-0621             
1 55162U 23004Y   23298.32336183 -.00000207  00000+0 -61962-3 0  9998
2 55162  87.8989 212.9701 0002293  79.7017 280.4369 13.11413274 39213
ONEWEB-0622             
1 55163U 23004Z   23299.32168526 -.00000255  00000+0 -75465-3 0  9990
2 55163  87.8996 212.7835 0001968 105.6903 254.4442 13.11415491 39349
ONEWEB-0623             
1 55164U 23004AA  23299.25074915  .00000111  00000+0  25208-3 0  9990
2 55164  87.9232 197.6782 0002191  99.5541 260.5839 13.17645443 40511
